HAWK-5A                 
1 52757U 22057AB  26194.61001174  .00011067  00000+0  18376-3 0  9996
2 52757  97.6616 355.1865 0003485 344.9263  15.1884 15.52286640230446
HAWK-6B                 
1 55324U 23011A   26194.41160527  .00002471  00000+0  11057-3 0  9994
2 55324  40.4967 199.0865 0003943 231.0284 129.0174 15.23143561191846
HAWK-6C                 
1 55326U 23011C   26194.41097653  .00002607  00000+0  11621-3 0  9993
2 55326  40.4959 195.9257 0004444 223.1928 136.8534 15.23146024191857
HAWK-6A                 
1 55327U 23011D   26194.41101302  .00002610  00000+0  11634-3 0  9999
2 55327  40.4967 197.5527 0003966 220.6915 139.3598 15.23145096191857
HAWK-7A                 
1 56191U 23054P   26194.64148149  .00003248  00000+0  12298-3 0  9996
2 56191  97.2670  81.3067 0001578 342.5182  17.6003 15.27622617181068
HAWK-7B                 
1 56193U 23054R   26194.64141084  .00003107  00000+0  11776-3 0  9993
2 56193  97.2695  79.5796 0001546  19.5574 340.5724 15.27620488181068
HAWK-7C                 
1 56200U 23054Y   26194.64129034  .00003195  00000+0  12101-3 0  9993
2 56200  97.2675  80.3406 0001042   3.4458 356.6789 15.27623740181060
